FLOCK 4S-12             
1 47471U 21006BL  22206.63212389  .00007053  00000+0  36267-3 0  9999
2 47471  97.4416 264.8263 0008656 151.3809 208.7901 15.16729667 83030
FLOCK 4S-13             
1 47472U 21006BM  22206.74934690  .00003102  00000+0  16155-3 0  9993
2 47472  97.4444 265.1548 0008641 149.8360 210.3372 15.16720332 83053
FLOCK 4S-35             
1 47473U 21006BN  22206.63310392  .00008139  00000+0  40351-3 0  9999
2 47473  97.4429 265.0765 0008052 147.2900 212.8834 15.17968067 83044
FLOCK 4S-8              
1 47474U 21006BP  22207.14403877  .00001845  00000+0  10245-3 0  9994
2 47474  97.4368 264.6667 0009295 150.3767 209.7993 15.14918560 83095
FLOCK 4S-31             
1 47475U 21006BQ  22207.14198219  .00009297  00000+0  47595-3 0  9993
2 47475  97.4369 265.0088 0008240 145.1383 215.0391 15.16797394 83111
FLOCK 4S-34             
1 47477U 21006BS  22207.41565381  .00005551  00000+0  28619-3 0  9998
2 47477  97.4426 265.6932 0008030 145.2086 214.9674 15.16739496 83154
FLOCK 4S-9              
1 47478U 21006BT  22206.62466829  .00009895  00000+0  50722-3 0  9993
2 47478  97.4376 264.5048 0008564 152.4022 207.7668 15.16734665 83030
FLOCK 4S-32             
1 47479U 21006BU  22206.95876084  .00009298  00000+0  45640-3 0  9998
2 47479  97.4370 264.9934 0007725 147.7192 212.4516 15.18278171 83094
FLOCK 4S-39             
1 47490U 21006CF  22206.65232930  .00003239  00000+0  16837-3 0  9999
2 47490  97.4466 265.4187 0010933 141.2594 218.9425 15.16729390 83057
FLOCK 4S-4              
1 47491U 21006CG  22207.11012488  .00004896  00000+0  25264-3 0  9990
2 47491  97.4345 265.0388 0010926 138.0942 222.1130 15.16742861 83122
FLOCK 4S-17             
1 47492U 21006CH  22207.10778547  .00007109  00000+0  36545-3 0  9999
2 47492  97.4477 265.9194 0010994 139.1189 221.0871 15.16716262 83129
FLOCK 4S-3              
1 47494U 21006CK  22207.12516345  .00003171  00000+0  17221-3 0  9994
2 47494  97.4355 264.7925 0011349 137.4047 222.8067 15.15180542 83103
FLOCK 4S-27             
1 47495U 21006CL  22206.64208296  .00007456  00000+0  38288-3 0  9990
2 47495  97.4350 264.6481 0011385 139.8249 220.3828 15.16733443 83052
FLOCK 4S-18             
1 47496U 21006CM  22206.83872123  .00007140  00000+0  36717-3 0  9993
2 47496  97.4457 265.5833 0011180 138.8889 221.3188 15.16701666 83089
FLOCK 4S-26             
1 47497U 21006CN  22206.63345151  .00011073  00000+0  52141-3 0  9997
2 47497  97.4344 265.1174 0010267 135.2985 224.9079 15.19652534 83082
FLOCK 4S-2              
1 47498U 21006CP  22207.09546256  .00007117  00000+0  36543-3 0  9990
2 47498  97.4362 265.1537 0011100 134.6212 225.5929 15.16755678 83125
FLOCK 4S-40             
1 47499U 21006CQ  22207.10575562  .00005908  00000+0  30466-3 0  9999
2 47499  97.4461 265.8270 0011405 139.6222 220.5860 15.16677585 83120
FLOCK 4S-19             
1 47500U 21006CR  22206.76073583  .00006385  00000+0  32812-3 0  9996
2 47500  97.4457 265.5148 0011713 137.6250 222.5889 15.16760569 83072
FLOCK 4S-28             
1 47514U 21006DE  22207.18093036  .00007600  00000+0  39014-3 0  9995
2 47514  97.4346 264.9664 0008876 145.8469 214.3337 15.16762350 84088
FLOCK 4S-5              
1 47515U 21006DF  22207.11318922  .00006259  00000+0  32203-3 0  9995
2 47515  97.4338 264.8574 0009192 147.4257 212.7545 15.16749171 83116
FLOCK 4S-16             
1 47516U 21006DG  22206.13420305  .00004659  00000+0  24046-3 0  9994
2 47516  97.4460 264.7248 0009087 149.8412 210.3346 15.16778416 83928
FLOCK 4S-6              
1 47518U 21006DJ  22207.38910566  .00009223  00000+0  47283-3 0  9997
2 47518  97.4351 265.1859 0008919 148.2350 211.9423 15.16745899 84124
FLOCK 4S-29             
1 47520U 21006DL  22206.85647432  .00008398  00000+0  43115-3 0  9992
2 47520  97.4359 264.7185 0008539 147.4234 212.7528 15.16726953 83070
FLOCK 4S-15             
1 47521U 21006DM  22207.33097305  .00001991  00000+0  10921-3 0  9996
2 47521  97.4466 265.6937 0009358 148.9377 211.2410 15.15270701 84102
FLOCK 4S-37             
1 47522U 21006DN  22206.40286650  .00004595  00000+0  23740-3 0  9993
2 47522  97.4447 264.8796 0008534 150.3144 209.8575 15.16750979 83970
FLOCK 4S-10             
1 47523U 21006DP  22206.63996418  .00008543  00000+0  43838-3 0  9996
2 47523  97.4381 264.5539 0008531 153.4838 206.6833 15.16739232 83039
FLOCK 4S-7              
1 47527U 21006DT  22207.39578937  .00009857  00000+0  50515-3 0  9995
2 47527  97.4350 265.1830 0008681 148.1853 211.9906 15.16741988 84115
FLOCK 4S-14             
1 47528U 21006DU  22207.13722151  .00008361  00000+0  42922-3 0  9999
2 47528  97.4448 265.6007 0008720 149.2025 210.9721 15.16732156 84078
FLOCK 4S-36             
1 47530U 21006DW  22206.61070461  .00003635  00000+0  18845-3 0  9990
2 47530  97.4440 265.0126 0008227 149.1884 210.9834 15.16763545 83994
FLOCK 4S-24             
1 47539U 21006DZ  22206.94229616  .00006417  00000+0  33015-3 0  9990
2 47539  97.4389 265.2578 0012041 136.2338 223.9852 15.16713614 83107
FLOCK 4S-20             
1 47540U 21006EA  22206.94455730  .00002505  00000+0  13074-3 0  9997
2 47540  97.4445 265.6458 0011328 136.7076 223.5050 15.16799071 82177
FLOCK 4S-25             
1 47542U 21006EC  22207.14958701  .00003368  00000+0  17490-3 0  9992
2 47542  97.4366 265.2934 0011680 137.1857 223.0287 15.16729594 82203
FLOCK 4S-1              
1 47543U 21006ED  22207.14799180  .00006599  00000+0  33896-3 0  9994
2 47543  97.4366 265.2855 0011210 133.9681 226.2478 15.16772398 82201
FLOCK 4S-30             
1 47544U 21006EE  22206.60085159  .00004013  00000+0  20772-3 0  9997
2 47544  97.4366 264.4944 0008305 148.0955 212.0783 15.16761385 83997
FLOCK 4S-23             
1 47545U 21006EF  22206.92695822  .00005762  00000+0  29593-3 0  9999
2 47545  97.4400 265.3533 0011527 137.9561 222.2559 15.16824808 84075
FLOCK 4S-42             
1 47612U 21006EQ  22206.85622035  .00004603  00000+0  23781-3 0  9998
2 47612  97.4423 265.3249 0011591 149.2808 210.9106 15.16725058 83089
FLOCK 4S-48             
1 47617U 21006EJ  22207.09840908  .00005394  00000+0  27797-3 0  9990
2 47617  97.4413 265.6791 0012604 130.0149 230.2193 15.16724954 84109
FLOCK 4S-46             
1 47684U 21006EK  22206.38437550  .00005035  00000+0  25981-3 0  9995
2 47684  97.4413 264.9236 0008138 158.1523 202.0059 15.16750617 83026
FLOCK 4S-47             
1 47685U 21006EL  22206.90874050  .00006080  00000+0  31321-3 0  9990
2 47685  97.4388 264.9014 0007501 150.5173 209.6485 15.16732346 83072
FLOCK 4S-44             
1 47686U 21006EM  22207.15939597  .00005636  00000+0  29015-3 0  9990
2 47686  97.4434 265.7428 0012613 143.0520 217.1585 15.16743091 83137
FLOCK 4S-43             
1 47687U 21006EN  22206.61863761  .00007510  00000+0  38605-3 0  9998
2 47687  97.4406 264.7674 0007655 138.4989 221.6827 15.16727278 84001
FLOCK 4S-45             
1 47688U 21006EP  22207.15637802  .00008773  00000+0  44963-3 0  9990
2 47688  97.4417 265.2201 0011804 130.2104 230.0164 15.16747801 84075
FLOCK 4S-41             
1 47698U 21006ER  22207.11907538  .00007282  00000+0  37418-3 0  9994
2 47698  97.4466 265.7389 0010993 140.6857 219.5177 15.16723076 83118
FLOCK 4X-8              
1 50992U 22002J   22206.80122676  .00004043  00000+0  21570-3 0  9993
2 50992  97.4861 273.4582 0009888 302.9513  57.0768 15.15677370 29230
FLOCK 4X-44             
1 50994U 22002L   22207.13755937  .00005805  00000+0  30859-3 0  9991
2 50994  97.4883 273.8310 0010091 300.9933  59.0307 15.15623689 29281
FLOCK 4X-2              
1 50996U 22002N   22206.14516532  .00003610  00000+0  19308-3 0  9997
2 50996  97.4875 272.8335 0010040 304.9210  55.1078 15.15661872 29138
FLOCK 4X-20             
1 50997U 22002P   22206.80222406  .00003377  00000+0  18081-3 0  9992
2 50997  97.4871 273.4829 0009938 303.5829  56.4454 15.15675169 29232
FLOCK 4X-30             
1 51000U 22002S   22206.80411372  .00003139  00000+0  16831-3 0  9997
2 51000  97.4819 273.3408 0009783 293.1652  66.8549 15.15675934 29238
FLOCK 4X-22             
1 51003U 22002V   22207.12990875  .00005656  00000+0  30038-3 0  9997
2 51003  97.4856 273.7716 0010141 304.2543  55.7728 15.15668782 29285
FLOCK 4X-5              
1 51004U 22002W   22206.86490607  .00006798  00000+0  36020-3 0  9991
2 51004  97.4831 273.4417 0010220 295.1761  64.8412 15.15673378 29246
FLOCK 4X-41             
1 51005U 22002X   22207.25831329  .00006209  00000+0  32907-3 0  9993
2 51005  97.4816 273.7902 0009841 289.6280  70.3890 15.15706862 29307
FLOCK 4X-3              
1 51006U 22002Y   22207.12591274  .00006508  00000+0  34460-3 0  9990
2 51006  97.4871 273.8127 0010602 299.1289  60.8882 15.15711979 29288
FLOCK 4X-18             
1 51007U 22002Z   22206.66190243  .00004927  00000+0  26184-3 0  9997
2 51007  97.4832 273.2591 0010626 295.3862  64.6270 15.15706749 29211
FLOCK 4X-37             
1 51009U 22002AB  22207.12357840  .00006969  00000+0  36878-3 0  9998
2 51009  97.4880 273.8375 0010765 298.5609  61.4539 15.15707518 29285
FLOCK 4X-15             
1 51010U 22002AC  22206.65426341  .00004188  00000+0  22317-3 0  9994
2 51010  97.4882 273.4023 0010842 298.3621  61.6518 15.15695832 29210
FLOCK 4X-29             
1 51011U 22002AD  22206.13089011  .00004691  00000+0  24975-3 0  9998
2 51011  97.4829 272.7253 0010531 296.3112  63.7039 15.15670209 29130
FLOCK 4X-27             
1 51012U 22002AE  22206.92198276  .00006287  00000+0  33295-3 0  9998
2 51012  97.4869 273.6134 0010981 302.2492  57.7675 15.15719124 29252
FLOCK 4X-12             
1 51015U 22002AH  22207.24602871  .00008255  00000+0  43614-3 0  9991
2 51015  97.4871 273.9520 0011029 293.9905  66.0172 15.15705017 29306
FLOCK 4X-25             
1 51016U 22002AJ  22207.05288821  .00006070  00000+0  32121-3 0  9990
2 51016  97.4852 273.7128 0010746 303.5044  56.5161 15.15761430 29274
FLOCK 4X-1              
1 51017U 22002AK  22206.78153104  .00003070  00000+0  16460-3 0  9990
2 51017  97.4834 273.4088 0010959 295.4149  64.5948 15.15680508 29232
